$$SOE
2460721.500000000, A.D. 2025-Feb-15 00:00:00.0000, -3.622560351045657E+08, -1.533999873315143E+08, 1.841806228677589E+07,
2460728.500000000, A.D. 2025-Feb-22 00:00:00.0000, -3.567038139737630E+08, -1.618954810340102E+08, 1.897232054923093E+07,
2460735.500000000, A.D. 2025-Mar-01 00:00:00.0000, -3.508645247272997E+08, -1.702607225734553E+08, 1.951130896007902E+07,
2460742.500000000, A.D. 2025-Mar-08 00:00:00.0000, -3.447391555720915E+08, -1.784871789204168E+08, 2.003438712517539E+07,
2460749.500000000, A.D. 2025-Mar-15 00:00:00.0000, -3.383288632391006E+08, -1.865661546191637E+08, 2.054090534458161E+07,
2460756.500000000, A.D. 2025-Mar-22 00:00:00.0000, -3.316349872204305E+08, -1.944887859811981E+08, 2.103020465849626E+07,
2460763.500000000, A.D. 2025-Mar-29 00:00:00.0000, -3.246590635608943E+08, -2.022460377350164E+08, 2.150161661650778E+07,
2460770.500000000, A.D. 2025-Apr-05 00:00:00.0000, -3.174028379384606E+08, -2.098286990425093E+08, 2.195446300217419E+07,
2460777.500000000, A.D. 2025-Apr-12 00:00:00.0000, -3.098682800172640E+08, -2.172273788298274E+08, 2.238805570373333E+07,
2460784.500000000, A.D. 2025-Apr-19 00:00:00.0000, -3.020575993155624E+08, -2.244325013732818E+08, 2.280169668164310E+07,
2460791.500000000, A.D. 2025-Apr-26 00:00:00.0000, -2.939732623714789E+08, -2.314343024142546E+08, 2.319467799710822E+07,
2460798.500000000, A.D. 2025-May-03 00:00:00.0000, -2.856180111491832E+08, -2.382228258689299E+08, 2.356628189913473E+07,
2460805.500000000, A.D. 2025-May-10 00:00:00.0000, -2.769948827167475E+08, -2.447879212235991E+08, 2.391578097586025E+07,
2460812.500000000, A.D. 2025-May-17 00:00:00.0000, -2.681072302220997E+08, -2.511192417696094E+08, 2.424243837264258E+07,
2460819.500000000, A.D. 2025-May-24 00:00:00.0000, -2.589587450574509E+08, -2.572062438584197E+08, 2.454550806729262E+07,
2460826.500000000, A.D. 2025-May-31 00:00:00.0000, -2.495534798568688E+08, -2.630381870054205E+08, 2.482423520179154E+07,
2460833.500000000, A.D. 2025-Jun-07 00:00:00.0000, -2.398958727858804E+08, -2.686041337924137E+08, 2.507785661922707E+07,
2460840.500000000, A.D. 2025-Jun-14 00:00:00.0000, -2.299907755386189E+08, -2.738929504075698E+08, 2.530560178283820E+07,
2460847.500000000, A.D. 2025-Jun-21 00:00:00.0000, -2.198434838693545E+08, -2.788933112876797E+08, 2.550669371397512E+07,
2460854.500000000, A.D. 2025-Jun-28 00:00:00.0000, -2.094597675663850E+08, -2.835937063142030E+08, 2.568034982385696E+07,
2460861.500000000, A.D. 2025-Jul-05 00:00:00.0000, -1.988459014088048E+08, -2.879824486434791E+08, 2.582578297370319E+07,
2460868.500000000, A.D. 2025-Jul-12 00:00:00.0000, -1.880086983032848E+08, -2.920476842352579E+08, 2.594220282712100E+07,
2460875.500000000, A.D. 2025-Jul-19 00:00:00.0000, -1.769555443958883E+08, -2.957774039384964E+08, 2.602881745194475E+07,
2460882.500000000, A.D. 2025-Jul-26 00:00:00.0000, -1.656944359082177E+08, -2.991594585030942E+08, 2.608483517055608E+07,
2460889.500000000, A.D. 2025-Aug-02 00:00:00.0000, -1.542340175632593E+08, -3.021815768379560E+08, 2.610946667927484E+07,
2460896.500000000, A.D. 2025-Aug-09 00:00:00.0000, -1.425836224749300E+08, -3.048313879003274E+08, 2.610192746036440E+07,
2460903.500000000, A.D. 2025-Aug-16 00:00:00.0000, -1.307533132805065E+08, -3.070964466759894E+08, 2.606144050282434E+07,
2460910.500000000, A.D. 2025-Aug-23 00:00:00.0000, -1.187539240295050E+08, -3.089642646552750E+08, 2.598723933586009E+07,
2460917.500000000, A.D. 2025-Aug-30 00:00:00.0000, -1.065971022482283E+08, -3.104223445356652E+08, 2.587857143327604E+07,
2460924.500000000, A.D. 2025-Sep-06 00:00:00.0000, -9.429535227913609E+07, -3.114582186142997E+08, 2.573470223079351E+07,
2460931.500000000, A.D. 2025-Sep-13 00:00:00.0000, -8.186208116875611E+07, -3.120594938305092E+08, 2.555491973609509E+07,
2460938.500000000, A.D. 2025-Sep-20 00:00:00.0000, -6.931164334650859E+07, -3.122139055906420E+08, 2.533853932565220E+07,
2460945.500000000, A.D. 2025-Sep-27 00:00:00.0000, -5.665938245623159E+07, -3.119093777524747E+08, 2.508490891305000E+07,
2460952.500000000, A.D. 2025-Oct-04 00:00:00.0000, -4.392167167040043E+07, -3.111340887032856E+08, 2.479341474241091E+07,
2460959.500000000, A.D. 2025-Oct-11 00:00:00.0000, -3.111595205560179E+07, -3.098765449170479E+08, 2.446348778402619E+07,
2460966.500000000, A.D. 2025-Oct-18 00:00:00.0000, -1.826076777344019E+07, -3.081256626585746E+08, 2.409461069733535E+07,
2460973.500000000, A.D. 2025-Oct-25 00:00:00.0000, -5.375796909902263E+06, -3.058708581448385E+08, 2.368632535433656E+07,
2460980.500000000, A.D. 2025-Nov-01 00:00:00.0000, 7.518123315632185E+06, -3.031021463724107E+08, 2.323824091550256E+07,
2460987.500000000, A.D. 2025-Nov-08 00:00:00.0000, 2.039897834777521E+07, -2.998102487433231E+08, 2.275004243518740E+07,
2460994.500000000, A.D. 2025-Nov-15 00:00:00.0000, 3.324356673353347E+07, -2.959867094905735E+08, 2.222149994705831E+07,
2461001.500000000, A.D. 2025-Nov-22 00:00:00.0000, 4.602750121623987E+07, -2.916240204263569E+08, 2.165247796196164E+07,
2461008.500000000, A.D. 2025-Nov-29 00:00:00.0000, 5.872522205253267E+07, -2.867157523798981E+08, 2.104294541541363E+07,
2461015.500000000, A.D. 2025-Dec-06 00:00:00.0000, 7.131002207787582E+07, -2.812566926783769E+08, 2.039298616896577E+07,
2461022.500000000, A.D. 2025-Dec-13 00:00:00.0000, 8.375408580313571E+07, -2.752429909329164E+08, 1.970280963042928E+07,
2461029.500000000, A.D. 2025-Dec-20 00:00:00.0000, 9.602854788090315E+07, -2.686723106403431E+08, 1.897276110959139E+07,
2461036.500000000, A.D. 2025-Dec-27 00:00:00.0000, 1.081035716427655E+08, -2.615439821537749E+08, 1.820333204556589E+07,
2461043.500000000, A.D. 2026-Jan-03 00:00:00.0000, 1.199484478734736E+08, -2.538591553631692E+08, 1.739516998616979E+07,
2461050.500000000, A.D. 2026-Jan-10 00:00:00.0000, 1.315317153152019E+08, -2.456209500586614E+08, 1.654908802159962E+07,
2461057.500000000, A.D. 2026-Jan-17 00:00:00.0000, 1.428213041713485E+08, -2.368346009328856E+08, 1.566607338317549E+07,
2461064.500000000, A.D. 2026-Jan-24 00:00:00.0000, 1.537847032700241E+08, -2.275075936544553E+08, 1.474729491502032E+07,
2461071.500000000, A.D. 2026-Jan-31 00:00:00.0000, 1.643891509379142E+08, -2.176497881153964E+08, 1.379410910868451E+07,
2461078.500000000, A.D. 2026-Feb-07 00:00:00.0000, 1.746018490264358E+08, -2.072735247424870E+08, 1.280806437605917E+07,
2461085.500000000, A.D. 2026-Feb-14 00:00:00.0000, 1.843901989817350E+08, -1.963937095992910E+08, 1.179090323241002E+07,
2461092.500000000, A.D. 2026-Feb-21 00:00:00.0000, 1.937220581425984E+08, -1.850278734498186E+08, 1.074456212051316E+07,
2461099.500000000, A.D. 2026-Feb-28 00:00:00.0000, 2.025660120658998E+08, -1.731961995667510E+08, 9.671168817519650E+06,
2461106.500000000, A.D. 2026-Mar-07 00:00:00.0000, 2.108916567873218E+08, -1.609215185282672E+08, 8.573037240207925E+06,
2461113.500000000, A.D. 2026-Mar-14 00:00:00.0000, 2.186698888968910E+08, -1.482292691948867E+08, 7.452659046343260E+06,
2461120.500000000, A.D. 2026-Mar-21 00:00:00.0000, 2.258731995590678E+08, -1.351474206199617E+08, 6.312692024877653E+06,
2461127.500000000, A.D. 2026-Mar-28 00:00:00.0000, 2.324759642035380E+08, -1.217063525157271E+08, 5.155945552840583E+06,
2461134.500000000, A.D. 2026-Apr-04 00:00:00.0000, 2.384547206043493E+08, -1.079386950528355E+08, 3.985363203015082E+06,
2461141.500000000, A.D. 2026-Apr-11 00:00:00.0000, 2.437884287787045E+08, -9.387912944535044E+07, 2.804002657936994E+06,
2461148.500000000, A.D. 2026-Apr-18 00:00:00.0000, 2.484587061443837E+08, -7.956415175870851E+07, 1.615013226584487E+06,
2461155.500000000, A.D. 2026-Apr-25 00:00:00.0000, 2.524500316876350E+08, -6.503180368255816E+07, 4.216113667577915E+05,
2461162.500000000, A.D. 2026-May-02 00:00:00.0000, 2.557499136060151E+08, -5.032137529115428E+07, -7.729453044891916E+05,
2461169.500000000, A.D. 2026-May-09 00:00:00.0000, 2.583490159847958E+08, -3.547308592284442E+07, -1.965384978796817E+06,
2461176.500000000, A.D. 2026-May-16 00:00:00.0000, 2.602412415389514E+08, -2.052774993751259E+07, -3.152449035795073E+06,
2461183.500000000, A.D. 2026-May-23 00:00:00.0000, 2.614237685263454E+08, -5.526433756761784E+06, -4.330919146116124E+06,
2461190.500000000, A.D. 2026-May-30 00:00:00.0000, 2.618970393263363E+08, 9.489888477523111E+06, -5.497643279418629E+06,
2461197.500000000, A.D. 2026-Jun-06 00:00:00.0000, 2.616647014269265E+08, 2.448066978597805E+07, -6.649560293180902E+06,
2461204.500000000, A.D. 2026-Jun-13 00:00:00.0000, 2.607335069308658E+08, 3.940610884763075E+07, -7.783722920329519E+06,
2461211.500000000, A.D. 2026-Jun-20 00:00:00.0000, 2.591131737863502E+08, 5.422744863613891E+07, -8.897318444668697E+06,
2461218.500000000, A.D. 2026-Jun-27 00:00:00.0000, 2.568162118033217E+08, 6.890724940594800E+07, -9.987686601813324E+06,
2461225.500000000, A.D. 2026-Jul-04 00:00:00.0000, 2.538577189976448E+08, 8.340963091903700E+07, -1.105233453555736E+07,
2461232.500000000, A.D. 2026-Jul-11 00:00:00.0000, 2.502551545586523E+08, 9.770048066050614E+07, -1.208894871332359E+07,
2461239.500000000, A.D. 2026-Jul-18 00:00:00.0000, 2.460280947912291E+08, 1.117476261881630E+08, -1.309540377616017E+07,
2461246.500000000, A.D. 2026-Jul-25 00:00:00.0000, 2.411979782665015E+08, 1.255209709357618E+08, -1.406976838570791E+07,
2461253.500000000, A.D. 2026-Aug-01 00:00:00.0000, 2.357878461563786E+08, 1.389925938392509E+08, -1.501030821646471E+07,
2461260.500000000, A.D. 2026-Aug-08 00:00:00.0000, 2.298220834219420E+08, 1.521368141283937E+08, -1.591548632164267E+07,
2461267.500000000, A.D. 2026-Aug-15 00:00:00.0000, 2.233261661098911E+08, 1.649302238986238E+08, -1.678396113032270E+07,
2461274.500000000, A.D. 2026-Aug-22 00:00:00.0000, 2.163264181066949E+08, 1.773516924479290E+08, -1.761458219525420E+07,
2461281.500000000, A.D. 2026-Aug-29 00:00:00.0000, 2.088497784050533E+08, 1.893823442173876E+08, -1.840638389837296E+07,
2461288.500000000, A.D. 2026-Sep-05 00:00:00.0000, 2.009235836297378E+08, 2.010055109441680E+08, -1.915857785949358E+07,
$$EOE